KUZGTU 1 (RS47S)        
1 57217U 23091AV  26169.93090748  .00009595  00000+0  33338-3 0  9991
2 57217  97.5060 234.4286 0012277  92.6422 267.6224 15.29894025164649
SONATE-2                
1 59112U 24043Q   26169.93578771  .00028512  00000+0  36936-3 0  9999
2 59112  97.5537 320.4387 0007133 189.6156 170.4964 15.58824558128163
MESAT1                  
1 60209U 24125G   26169.32249336  .00046639  00000+0  50655-3 0  9998
2 60209  97.2281  26.8304 0009668 199.4839 160.6052 15.63304730109746
OOV-CUBE (TUBSAT-30)    
1 60240U 24128F   26169.58586730  .00001416  00000+0  11902-3 0  9992
2 60240  61.9932 220.6959 0044464 134.0792 226.3973 15.02778203106324
COLIBRI-S (RS67S)       
1 61746U 24199M   26169.93673511  .00016929  00000+0  32768-3 0  9993
2 61746  97.2987  43.8065 0006265 270.1573  89.8959 15.47782459137683
HORS 3 (RS81S)          
1 61753U 24199U   26169.95564778  .00030216  00000+0  44982-3 0  9993
2 61753  97.2969  45.8312 0003774 266.8788  93.2035 15.55075823137830
HORS 4 (RS82S)          
1 61754U 24199V   26169.91089046  .00036314  00000+0  45279-3 0  9995
2 61754  97.2914  46.9983 0003261 246.7172 113.3742 15.59812763137916
SIT-2086                
1 61764U 24199AF  26169.93604156  .00029463  00000+0  46973-3 0  9992
2 61764  97.2926  46.2815 0004788 241.0128 119.0646 15.53183961134706
HYPERVIEW 1G (RS66S)    
1 61772U 24199AP  26169.90392481  .00124754  00000+0  78800-3 0  9996
2 61772  97.2865  49.7100 0004189 212.2711 147.8299 15.76240826134943
ALTAIR (RS65S)          
1 61779U 24199AW  26169.93487721  .00006322  00000+0  17638-3 0  9990
2 61779  97.3022  39.2739 0010984 304.1085  55.9117 15.37043654137389
ASRTU-1 (AO-123)        
1 61781U 24199AY  26169.92431033  .00006335  00000+0  18443-3 0  9996
2 61781  97.2993  38.5791 0012162 307.1251  52.8881 15.35696380134194
SAMSAT-IONOSPHERE (RS7*)
1 61784U 24199BB  26169.92239279  .00034891  00000+0  46994-3 0  9997
2 61784  97.2936  45.8505 0005934 267.3587  92.6990 15.57751200137830
RTU MIREA 1 (RS51S)     
1 61785U 24199BC  26169.94294349  .00045684  00000+0  53822-3 0  9999
2 61785  97.2924  46.7122 0005588 257.9396 102.1235 15.61243942134741
TEVEL2-4                
1 63213U 25052D   26169.94271252  .00014157  00000+0  42339-3 0  9996
2 63213  97.3897  66.3370 0004964  99.6798 260.5006 15.34660413 70386
TEVEL2-5                
1 63214U 25052E   26169.96341136  .00013903  00000+0  41817-3 0  9996
2 63214  97.3893  66.3049 0004867 101.1149 259.0642 15.34486837 70382
TEVEL2-6                
1 63215U 25052F   26169.64972186  .00014665  00000+0  44149-3 0  9994
2 63215  97.3902  65.9753 0004753 102.3896 257.7879 15.34444200 70337
TEVEL2-1                
1 63217U 25052H   26167.98311732  .00015254  00000+0  46759-3 0  9999
2 63217  97.3878  63.9315 0004776 114.0246 246.1497 15.33862790 70062
TEVEL2-3                
1 63218U 25052J   26169.21721413  .00013636  00000+0  41717-3 0  9990
2 63218  97.3876  65.1876 0004784 111.6864 248.4888 15.33951855 70256
TEVEL2-2                
1 63219U 25052K   26169.61432709  .00013531  00000+0  41444-3 0  9993
2 63219  97.3876  65.5651 0004771 111.0401 249.1353 15.33915374 70317
TEVEL2-9                
1 63237U 25052AD  26169.20167564  .00012483  00000+0  40696-3 0  9995
2 63237  97.3936  64.5254 0007883 127.9534 232.2421 15.31922489 70189
TEVEL2-7                
1 63238U 25052AE  26169.96142976  .00011510  00000+0  37873-3 0  9992
2 63238  97.3937  65.1990 0008008 126.3345 233.8637 15.31643391 70298
TEVEL2-8                
1 63239U 25052AF  26169.96969961  .00011956  00000+0  39346-3 0  9995
2 63239  97.3937  65.1840 0007998 126.6722 233.5256 15.31628527 70290
INNOSAT 16 (RS92S7)     
1 64878U 25155C   26169.90432727  .00004548  00000+0  18237-3 0  9993
2 64878  97.4567 137.0266 0010745 169.5554 190.5909 15.25471222 80934
GEOSCAN 6 (RS92S6)      
1 64879U 25155D   26169.94722478  .00007787  00000+0  26904-3 0  9991
2 64879  97.4560 138.5058 0008572 156.7835 203.3794 15.30178475 81035
GEOSCAN 1 (RS92S1)      
1 64880U 25155E   26169.94898900  .00008528  00000+0  28901-3 0  9990
2 64880  97.4557 138.6571 0008510 156.5256 203.6375 15.30775824 81041
239ALFEROV (RS61S)      
1 64881U 25155F   26169.91611033  .00011534  00000+0  36406-3 0  9998
2 64881  97.4558 139.1913 0008230 153.6566 206.5096 15.32978228 81070
GEOSCAN 2 (RS92S2)      
1 64890U 25155Q   26169.94236159  .00008648  00000+0  29062-3 0  9995
2 64890  97.4556 138.8037 0008295 144.2235 215.9564 15.31047177 81052
GEOSCAN 5 (RS92S5)      
1 64891U 25155R   26169.90477728  .00010905  00000+0  34107-3 0  9996
2 64891  97.4550 139.3180 0006985 157.2652 202.8901 15.33294769 81089
GEOSCAN 4 (RS92S4)      
1 64892U 25155S   26169.95405131  .00010794  00000+0  33599-3 0  9991
2 64892  97.4553 139.4167 0007048 156.7398 203.4164 15.33450674 81099
GEOSCAN 3 (RS92S3)      
1 64893U 25155T   26169.95252016  .00013057  00000+0  38104-3 0  9996
2 64893  97.4542 139.8500 0006999 155.0584 205.0999 15.35443678 81122
