OBJECT_NAME,OBJECT_ID,EPOCH,MEAN_MOTION,ECCENTRICITY,INCLINATION,RA_OF_ASC_NODE,ARG_OF_PERICENTER,MEAN_ANOMALY,EPHEMERIS_TYPE,CLASSIFICATION_TYPE,NORAD_CAT_ID,ELEMENT_SET_NO,REV_AT_EPOCH,BSTAR,MEAN_MOTION_DOT,MEAN_MOTION_DDOT
KUZGTU 1 (RS47S),2023-091AV,2026-06-18T22:20:30.406272,15.29894025,.00122779,97.5060,234.4286,92.6422,267.6224,0,U,57217,999,16464,.33337699E-3,.9595E-4,0
SONATE-2,2024-043Q,2026-06-18T22:27:32.058144,15.58824558,.00071337,97.5537,320.4387,189.6156,170.4964,0,U,59112,999,12816,.36936147E-3,.28512E-3,0
MESAT1,2024-125G,2026-06-18T07:44:23.426304,15.63304730,.0009668,97.2281,26.8304,199.4839,160.6052,0,U,60209,999,10974,.50655E-3,.46639E-3,0
OOV-CUBE (TUBSAT-30),2024-128F,2026-06-18T14:03:38.934720,15.02778203,.0044464,61.9932,220.6959,134.0792,226.3973,0,U,60240,999,10632,.11902E-3,.1416E-4,0
COLIBRI-S (RS67S),2024-199M,2026-06-18T22:28:53.913504,15.47782459,.00062653,97.2987,43.8065,270.1573,89.8959,0,U,61746,999,13768,.32768235E-3,.16929E-3,0
HORS 3 (RS81S),2024-199U,2026-06-18T22:56:07.968192,15.55075823,.00037744,97.2969,45.8312,266.8788,93.2035,0,U,61753,999,13783,.44981584E-3,.30216E-3,0
HORS 4 (RS82S),2024-199V,2026-06-18T21:51:40.935744,15.59812763,.00032611,97.2914,46.9983,246.7172,113.3742,0,U,61754,999,13791,.45278771E-3,.36314E-3,0
SIT-2086,2024-199AF,2026-06-18T22:27:53.990784,15.53183961,.0004788,97.2926,46.2815,241.0128,119.0646,0,U,61764,999,13470,.46973011E-3,.29463E-3,0
HYPERVIEW 1G (RS66S),2024-199AP,2026-06-18T21:41:39.103584,15.76240826,.00041899,97.2865,49.7100,212.2711,147.8299,0,U,61772,999,13494,.78800247E-3,.124754E-2,0
ALTAIR (RS65S),2024-199AW,2026-06-18T22:26:13.390944,15.37043654,.00109847,97.3022,39.2739,304.1085,55.9117,0,U,61779,999,13738,.1763781E-3,.6322E-4,0
ASRTU-1 (AO-123),2024-199AY,2026-06-18T22:11:00.412512,15.35696380,.00121622,97.2993,38.5791,307.1251,52.8881,0,U,61781,999,13419,.1844253E-3,.6335E-4,0
SAMSAT-IONOSPHERE (RS75S),2024-199BB,2026-06-18T22:08:14.737056,15.57751200,.00059344,97.2936,45.8505,267.3587,92.6990,0,U,61784,999,13783,.46994002E-3,.34891E-3,0
RTU MIREA 1 (RS51S),2024-199BC,2026-06-18T22:37:50.317536,15.61243942,.0005588,97.2924,46.7122,257.9396,102.1235,0,U,61785,999,13474,.53821529E-3,.45684E-3,0
TEVEL2-4,2025-052D,2026-06-18T22:37:30.361728,15.34660413,.00049641,97.3897,66.3370,99.6798,260.5006,0,U,63213,999,7038,.42338953E-3,.14157E-3,0
TEVEL2-5,2025-052E,2026-06-18T23:07:18.741504,15.34486837,.00048676,97.3893,66.3049,101.1149,259.0642,0,U,63214,999,7038,.41816528E-3,.13903E-3,0
TEVEL2-6,2025-052F,2026-06-18T15:35:35.968704,15.34444200,.00047536,97.3902,65.9753,102.3896,257.7879,0,U,63215,999,7033,.44149186E-3,.14665E-3,0
TEVEL2-1,2025-052H,2026-06-16T23:35:41.336448,15.33862790,.0004776,97.3878,63.9315,114.0246,246.1497,0,U,63217,999,7006,.46759393E-3,.15254E-3,0
TEVEL2-3,2025-052J,2026-06-18T05:12:47.300832,15.33951855,.0004784,97.3876,65.1876,111.6864,248.4888,0,U,63218,999,7025,.41717E-3,.13636E-3,0
TEVEL2-2,2025-052K,2026-06-18T14:44:37.860576,15.33915374,.00047719,97.3876,65.5651,111.0401,249.1353,0,U,63219,999,7031,.41444408E-3,.13531E-3,0
TEVEL2-9,2025-052AD,2026-06-18T04:50:24.775296,15.31922489,.0007883,97.3936,64.5254,127.9534,232.2421,0,U,63237,999,7018,.40696E-3,.12483E-3,0
TEVEL2-7,2025-052AE,2026-06-18T23:04:27.531264,15.31643391,.00080086,97.3937,65.1990,126.3345,233.8637,0,U,63238,999,7029,.37872512E-3,.1151E-3,0
TEVEL2-8,2025-052AF,2026-06-18T23:16:22.046304,15.31628527,.00079986,97.3937,65.1840,126.6722,233.5256,0,U,63239,999,7029,.39346486E-3,.11956E-3,0
INNOSAT 16 (RS92S7),2025-155C,2026-06-18T21:42:13.876128,15.25471222,.00107458,97.4567,137.0266,169.5554,190.5909,0,U,64878,999,8093,.18236926E-3,.4548E-4,0
GEOSCAN 6 (RS92S6),2025-155D,2026-06-18T22:44:00.220992,15.30178475,.00085726,97.4560,138.5058,156.7835,203.3794,0,U,64879,999,8103,.2690356E-3,.7787E-4,0
GEOSCAN 1 (RS92S1),2025-155E,2026-06-18T22:46:32.649600,15.30775824,.00085105,97.4557,138.6571,156.5256,203.6375,0,U,64880,999,8104,.28900655E-3,.8528E-4,0
239ALFEROV (RS61S),2025-155F,2026-06-18T21:59:11.932512,15.32978228,.00082309,97.4558,139.1913,153.6566,206.5096,0,U,64881,999,8107,.36406468E-3,.11534E-3,0
GEOSCAN 2 (RS92S2),2025-155Q,2026-06-18T22:37:00.041376,15.31047177,.00082953,97.4556,138.8037,144.2235,215.9564,0,U,64890,999,8105,.29061594E-3,.8648E-4,0
GEOSCAN 5 (RS92S5),2025-155R,2026-06-18T21:42:52.756992,15.33294769,.00069853,97.4550,139.3180,157.2652,202.8901,0,U,64891,999,8108,.34107015E-3,.10905E-3,0
GEOSCAN 4 (RS92S4),2025-155S,2026-06-18T22:53:50.033184,15.33450674,.00070487,97.4553,139.4167,156.7398,203.4164,0,U,64892,999,8109,.33599308E-3,.10794E-3,0
GEOSCAN 3 (RS92S3),2025-155T,2026-06-18T22:51:37.741824,15.35443678,.00069997,97.4542,139.8500,155.0584,205.0999,0,U,64893,999,8112,.38104421E-3,.13057E-3,0
